#aV2008 11 18  0  0   .00000000      96 DD+AD WGS84 FIT  NGA
## 1506 172800.00000000   900.00000000 54788  .0000000000000
+   31     2  3  4  5  6  7  8  9 10 11 12 13 14 15 16 17 18
+         19 20 21 22 23 24 25 26 27 28 29 30 31 32  0  0  0
+          0  0  0  0  0  0  0  0  0  0  0  0  0  0  0  0  0
+          0  0  0  0  0  0  0  0  0  0  0  0  0  0  0  0  0
+          0  0  0  0  0  0  0  0  0  0  0  0  0  0  0  0  0
++         0  0  0  0  0  0  0  0  0  0  0  0  0  0  0  0  0
++         0  0  0  0  0  0  0  0  0  0  0  0  0  0  0  0  0
++         0  0  0  0  0  0  0  0  0  0  0  0  0  0  0  0  0
++         0  0  0  0  0  0  0  0  0  0  0  0  0  0  0  0  0
++         0  0  0  0  0  0  0  0  0  0  0  0  0  0  0  0  0
%c cc cc ccc ccc cccc cccc cccc cccc ccccc ccccc ccccc ccccc
%c cc cc ccc ccc cccc cccc cccc cccc ccccc ccccc ccccc ccccc
%f  0.0000000  0.000000000  0.00000000000  0.000000000000000
%f  0.0000000  0.000000000  0.00000000000  0.000000000000000
%i    0    0    0    0      0      0      0      0         0
%i    0    0    0    0      0      0      0      0         0
/*      NGA, ST. LOUIS,MO.                                  
/*   EPHEMERIS COMPUTED FROM  3 DAYS OF DATA                
/* CCCCCCCCCCCCCCCCCCCCCCCCCCCCCCCCCCCCCCCCCCCCCCCCCCCCCCCCC
/* CCCCCCCCCCCCCCCCCCCCCCCCCCCCCCCCCCCCCCCCCCCCCCCCCCCCCCCCC
*  2008 11 18 21 45   .00000000                                                 
P  2  -1467.482280 -16641.536230  20590.078470    172.329604                    
V  2  24888.717443   8927.896237   8556.917406      -.024419                    
P  3  -4618.511545  20970.047641 -15697.778355    312.981428                    
V  3 -16043.829579  11700.922267  21096.724388       .053629                    
P  4  14548.979032  -9698.850101  19972.039313   -236.711451                    
V  4  23227.123250  10790.662505 -11242.013889      -.122558                    
P  5 -14849.851875 -16074.103736  14842.131836   -394.122981                    
V  5  -2110.736014 -19395.879598 -22544.670710      -.129531                    
P  6 -10206.683265  20930.953983 -12578.763609    140.861884                    
V  6 -14404.490461   8280.042119  25109.816314      -.074354                    
P  7  25312.820500   6225.571158  -5407.084725     23.276827                    
V  7   5371.388438   4887.588466  30791.836236       .002511                    
P  8  20822.389685  -2361.850317 -16681.113499   -178.491692                    
V  8  18376.801943   9799.842950  21153.079475      -.015499                    
P  9 -19339.284482 -15040.912610 -11039.700430     25.544677                    
V  9  12844.594270   2733.177410 -27742.449964       .018124                    
P 10   -941.799762 -26183.530578   2918.487413     -7.395020                    
V 10   3508.599604   3538.924452  31692.444550      -.003954                    
P 11  21783.485863  12124.798165  -9816.689285     15.307171                    
V 11 -12799.588132   1779.727619 -26349.209049      -.008839                    
P 12 -11603.456644 -20378.246249  12638.535821   -339.755084                    
V 12    -60.417883 -16025.655294 -25947.941488       .024835                    
P 13  20585.682482  -1226.768701  16620.757260    277.770266                    
V 13 -16749.211099  13138.223383  21569.918218       .015685                    
P 14 -20895.736969  16250.922057   1320.222275   -192.883053                    
V 14  -2422.715265   -726.994220 -32383.078500       .048489                    
P 15  -3908.912574 -15784.985965 -20962.579676   -213.069248                    
V 15  21341.572643 -16081.170170   8147.067727      -.061547                    
P 16  -3412.382743  24614.430560   9128.247833     94.471662                    
V 16  -3896.987245 -11185.421746  29094.026322      -.023738                    
P 17  21516.613431 -15365.316224  -1028.397167     40.697329                    
V 17    735.454186   3234.894127 -31804.075835       .005960                    
P 18 -15570.192639   -811.719815 -21315.974565   -111.614519                    
V 18  -2761.620946 -27452.925489   2672.168452       .038783                    
P 19   4653.647712  14981.597917 -21341.991060     35.473882                    
V 19 -23006.464860  14699.966544   5499.576306      -.001604                    
P 20  13532.603799  17471.819911  14648.712352     98.717550                    
V 20    576.883980  18973.831628 -22939.888902      -.010189                    
P 21 -24824.313011  -2996.464925  -9597.404773     41.998797                    
V 21 -10226.150536  -7463.546958  27523.890136      -.015597                    
P 22 -12482.233524  13534.649176 -18959.861189    209.160283                    
V 22  -4063.603559 -24214.040581 -14544.295280      -.004919                    
P 23  14908.408161   6610.150608  20969.351448    380.380441                    
V 23 -20723.883353  16763.973436   9163.673141       .011209                    
P 24 -22572.289116 -13287.706082   3529.496732    142.121947                    
V 24   5321.967665  -1139.006322  31314.366756       .031327                    
P 25  24666.644952   9297.960456   2675.654707     34.483573                    
V 25  -3632.273201   1752.678764  31780.552032       .301774                    
P 26   2202.984529 -17564.259538 -20118.425117     16.826078                    
V 26  20643.618837 -13319.395173  14760.603608       .044425                    
P 27  25177.514929   3253.679569  -7298.208594      1.027128                    
V 27   8858.998391   5503.141072  30096.775360       .028919                    
P 28  12624.302064 -11384.719585 -19917.312371    -23.553805                    
V 28   4156.989794  25967.367660 -12297.438540      -.001083                    
P 29 -19887.904818   -655.911084  17679.407034    -29.343490                    
V 29  16871.451635 -14618.873345  18579.553752       .019385                    
P 30 -15711.474788  -7297.488627  19796.346737    108.674493                    
V 30  -3430.528374 -25747.582309 -11913.727457       .023067                    
P 31 -11177.855471  11351.220683  21477.911679    -39.283894                    
V 31 -24618.896142 -10433.136672  -7262.759786      -.023168                    
P 32   8242.064676  23439.938402  10103.014527    313.512110                    
V 32  -1423.852339  12230.782915 -28211.862053      -.013709                    
EOF
